[{"OBJECT_NAME":"STARLINK-3992","OBJECT_ID":"2022-052AF","EPOCH":"2026-03-09T20:21:16.592544","MEAN_MOTION":15.08828468,"ECCENTRICITY":0.00012442,"INCLINATION":53.2159,"RA_OF_ASC_NODE":268.4124,"ARG_OF_PERICENTER":95.8183,"MEAN_ANOMALY":264.2951,"EPHEMERIS_TYPE":0,"CLASSIFICATION_TYPE":"U","NORAD_CAT_ID":52627,"ELEMENT_SET_NO":999,"REV_AT_EPOCH":21102,"BSTAR":-7.0787003e-5,"MEAN_MOTION_DOT":-1.414e-5,"MEAN_MOTION_DDOT":0},{"OBJECT_NAME":"FENGYUN 1C DEB","OBJECT_ID":"1999-025CFH","EPOCH":"2026-03-07T23:38:47.437728","MEAN_MOTION":14.44985594,"ECCENTRICITY":0.03068092,"INCLINATION":98.0605,"RA_OF_ASC_NODE":76.6957,"ARG_OF_PERICENTER":189.4978,"MEAN_ANOMALY":170.0331,"EPHEMERIS_TYPE":0,"CLASSIFICATION_TYPE":"U","NORAD_CAT_ID":31758,"ELEMENT_SET_NO":999,"REV_AT_EPOCH":95430,"BSTAR":0.0018761349,"MEAN_MOTION_DOT":0.00011691,"MEAN_MOTION_DDOT":0}]
